NORAD_CAT_ID,OBJECT_NAME,OBJECT_TYPE,EPOCH,MEAN_MOTION,ECCENTRICITY,INCLINATION,RA_OF_ASC_NODE,ARG_OF_PERICENTER,MEAN_ANOMALY,BSTAR,MEAN_MOTION_DOT,MEAN_MOTION_DDOT,TLE_LINE0,TLE_LINE1,TLE_LINE2,SEMIMAJOR_AXIS,PERIOD,APOGEE,PERIGEE,DECAYED
53708.0,STARLINK-4694,PAYLOAD,2024-02-09 05:29:46,15.08839832,0.0002044,53.2192,38.3425,111.8704,248.2506,-1.7536e-05,-5.67e-06,0.0,0 STARLINK-4694,1 53708U 22107J   24040.22901264 -.00000567  00000-0 -17536-4 0  9997,2 53708  53.2192  38.3425 0002044 111.8704 248.2506 15.08839832 79666,6917.881,95.438,541.16,538.332,0.0
53708.0,STARLINK-4694,PAYLOAD,2024-02-10 03:45:11,15.08825025,0.0001756,53.2188,34.1788,113.1974,246.9204,0.00023237,3.411e-05,0.0,0 STARLINK-4694,1 53708U 22107J   24041.15637913  .00003411  00000-0  23237-3 0  9990,2 53708  53.2188  34.1788 0001756 113.1974 246.9204 15.08825025 79805,6917.926,95.439,541.006,538.576,0.0
53708.0,STARLINK-4694,PAYLOAD,2024-02-10 08:31:19,15.08843709,0.0001614,53.218,33.2846,105.7489,254.3682,0.00011064,1.473e-05,0.0,0 STARLINK-4694,1 53708U 22107J   24041.35509026  .00001473  00000-0  11064-3 0  9996,2 53708  53.2180  33.2846 0001614 105.7489 254.3682 15.08843709 79838,6917.869,95.437,540.851,538.618,0.0
53708.0,STARLINK-4694,PAYLOAD,2024-02-11 03:35:58,15.08837213,0.0001708,53.2193,29.7077,86.2336,273.8851,8.017e-05,9.88e-06,0.0,0 STARLINK-4694,1 53708U 22107J   24042.14997800  .00000988  00000-0  80170-4 0  9990,2 53708  53.2193  29.7077 0001708  86.2336 273.8851 15.08837213 79956,6917.889,95.438,540.935,538.572,0.0
53708.0,STARLINK-4694,PAYLOAD,2024-02-11 08:22:06,15.08845178,0.000189,53.2197,28.8141,82.2014,277.9193,0.0001453,2.025e-05,0.0,0 STARLINK-4694,1 53708U 22107J   24042.34869201  .00002025  00000-0  14530-3 0  9995,2 53708  53.2197  28.8141 0001890  82.2014 277.9193 15.08845178 79989,6917.865,95.437,541.037,538.422,0.0
53708.0,STARLINK-4694,PAYLOAD,2024-02-12 03:26:43,15.08857819,0.0002003,53.2205,25.2446,69.7148,290.4059,0.00016438,2.33e-05,0.0,0 STARLINK-4694,1 53708U 22107J   24043.14356084  .00002330  00000-0  16438-3 0  9992,2 53708  53.2205  25.2446 0002003  69.7148 290.4059 15.08857819 80105,6917.826,95.436,541.077,538.305,0.0
53708.0,STARLINK-4694,PAYLOAD,2024-02-12 08:12:51,15.08876881,0.000173,53.2201,24.3567,94.2115,265.9075,0.00031905,4.798e-05,0.0,0 STARLINK-4694,1 53708U 22107J   24043.34226217  .00004798  00000-0  31905-3 0  9994,2 53708  53.2201  24.3567 0001730  94.2115 265.9075 15.08876881 80136,6917.768,95.435,540.829,538.436,0.0
53708.0,STARLINK-4694,PAYLOAD,2024-02-13 01:42:08,15.08841658,0.0001355,53.2191,21.0883,103.6778,256.4365,-7.1307e-05,-1.423e-05,0.0,0 STARLINK-4694,1 53708U 22107J   24044.07093078 -.00001423  00000-0 -71307-4 0  9997,2 53708  53.2191  21.0883 0001355 103.6778 256.4365 15.08841658 80245,6917.875,95.437,540.678,538.803,0.0
53708.0,STARLINK-4694,PAYLOAD,2024-02-13 04:52:54,15.08845275,0.0001486,53.2195,20.4933,92.0587,268.0575,-3.3766e-05,-8.25e-06,0.0,0 STARLINK-4694,1 53708U 22107J   24044.20340869 -.00000825  00000-0 -33766-4 0  9997,2 53708  53.2195  20.4933 0001486  92.0587 268.0575 15.08845275 81019,6917.864,95.437,540.757,538.701,0.0
53708.0,STARLINK-4694,PAYLOAD,2024-02-13 22:22:09,15.08848876,0.0001875,53.2194,17.2273,129.8949,230.2209,-0.00019838,-3.445e-05,0.0,0 STARLINK-4694,1 53708U 22107J   24044.93205029 -.00003445  00000-0 -19838-3 0  9999,2 53708  53.2194  17.2273 0001875 129.8949 230.2209 15.08848876 81129,6917.853,95.437,541.015,538.421,0.0
53708.0,STARLINK-4694,PAYLOAD,2024-02-14 04:43:40,15.08857146,0.0001327,53.2185,16.0365,100.3082,259.806,-0.0001938,-3.372e-05,0.0,0 STARLINK-4694,1 53708U 22107J   24045.19700221 -.00003372  00000-0 -19380-3 0  9993,2 53708  53.2185  16.0365 0001327 100.3082 259.8060 15.08857146 80415,6917.828,95.436,540.611,538.775,0.0
53708.0,STARLINK-4694,PAYLOAD,2024-02-14 07:54:27,15.0884915,0.0001587,53.2187,15.4382,83.6544,276.4629,-0.00011917,-2.185e-05,0.0,0 STARLINK-4694,1 53708U 22107J   24045.32948169 -.00002185  00000-0 -11917-3 0  9992,2 53708  53.2187  15.4382 0001587  83.6544 276.4629 15.08849150 81180,6917.852,95.437,540.815,538.62,0.0
53708.0,STARLINK-4694,PAYLOAD,2024-02-14 22:12:56,15.08831075,0.0001172,53.2172,12.7598,96.4389,263.6736,1.8654e-06,-2.58e-06,0.0,0 STARLINK-4694,1 53708U 22107J   24045.92565576 -.00000258  00000-0  18654-5 0  9990,2 53708  53.2172  12.7598 0001172  96.4389 263.6736 15.08831075 81276,6917.908,95.438,540.583,538.962,0.0
53708.0,STARLINK-4694,PAYLOAD,2024-02-15 04:34:29,15.08830409,0.0001368,53.2189,11.5769,87.3172,272.7977,0.00011424,1.53e-05,0.0,0 STARLINK-4694,1 53708U 22107J   24046.19061977  .00001530  00000-0  11424-3 0  9995,2 53708  53.2189  11.5769 0001368  87.3172 272.7977 15.08830409 80566,6917.91,95.438,540.721,538.828,0.0
53708.0,STARLINK-4694,PAYLOAD,2024-02-15 22:03:44,15.08829819,0.0001378,53.2184,8.3055,90.4957,269.6193,5.1222e-05,5.27e-06,0.0,0 STARLINK-4694,1 53708U 22107J   24046.91926561  .00000527  00000-0  51222-4 0  9990,2 53708  53.2184   8.3055 0001378  90.4957 269.6193 15.08829819 81424,6917.912,95.438,540.73,538.823,0.0
53708.0,STARLINK-4694,PAYLOAD,2024-02-16 13:57:35,15.08844426,0.0001254,53.2177,5.3303,87.325,272.7886,0.00014544,2.028e-05,0.0,0 STARLINK-4694,1 53708U 22107J   24047.58165777  .00002028  00000-0  14544-3 0  9991,2 53708  53.2177   5.3303 0001254  87.3250 272.7886 15.08844426 81529,6917.867,95.437,540.599,538.864,0.0
53708.0,STARLINK-4694,PAYLOAD,2024-02-16 21:54:31,15.08834147,0.0001702,53.2202,3.8486,102.2832,257.8351,4.7992e-05,4.76e-06,0.0,0 STARLINK-4694,1 53708U 22107J   24047.91286628  .00000476  00000-0  47992-4 0  9996,2 53708  53.2202   3.8486 0001702 102.2832 257.8351 15.08834147 81579,6917.898,95.438,540.941,538.586,0.0
53708.0,STARLINK-4694,PAYLOAD,2024-02-17 04:16:04,15.08834312,0.0001685,53.2199,2.6572,91.2682,268.8504,7.9547e-05,9.78e-06,0.0,0 STARLINK-4694,1 53708U 22107J   24048.17782982  .00000978  00000-0  79547-4 0  9997,2 53708  53.2199   2.6572 0001685  91.2682 268.8504 15.08834312 80864,6917.898,95.438,540.928,538.597,0.0
53708.0,STARLINK-4694,PAYLOAD,2024-02-17 05:51:27,15.08840966,0.000163,53.2201,2.3596,91.8953,268.2226,0.00015426,2.168e-05,0.0,0 STARLINK-4694,1 53708U 22107J   24048.24406441  .00002168  00000-0  15426-3 0  9996,2 53708  53.2201   2.3596 0001630  91.8953 268.2226 15.08840966 80876,6917.877,95.437,540.87,538.615,0.0
53708.0,STARLINK-4694,PAYLOAD,2024-02-17 13:48:23,15.08839322,0.0001614,53.2202,0.872,81.9967,278.1209,0.00013768,1.904e-05,0.0,0 STARLINK-4694,1 53708U 22107J   24048.57526632  .00001904  00000-0  13768-3 0  9991,2 53708  53.2202   0.8720 0001614  81.9967 278.1209 15.08839322 81670,6917.882,95.438,540.864,538.631,0.0
53708.0,STARLINK-4694,PAYLOAD,2024-02-18 05:42:13,15.0885544,0.000128,53.2183,357.8961,87.9982,272.1156,0.0001504,2.108e-05,0.0,0 STARLINK-4694,1 53708U 22107J   24049.23765469  .00002108  00000-0  15040-3 0  9990,2 53708  53.2183 357.8961 0001280  87.9982 272.1156 15.08855440 81025,6917.833,95.437,540.584,538.813,0.0
53708.0,STARLINK-4694,PAYLOAD,2024-02-18 13:39:08,15.08856317,0.0001287,53.2184,356.4097,89.474,270.6399,0.00014088,1.956e-05,0.0,0 STARLINK-4694,1 53708U 22107J   24049.56885149  .00001956  00000-0  14088-3 0  9995,2 53708  53.2184 356.4097 0001287  89.4740 270.6399 15.08856317 81821,6917.831,95.437,540.586,538.805,0.0
53708.0,STARLINK-4694,PAYLOAD,2024-02-19 03:57:38,15.0882383,0.0001738,53.2203,353.7346,88.6045,271.5147,-0.00014657,-2.619e-05,0.0,0 STARLINK-4694,1 53708U 22107J   24050.16503349 -.00002619  00000-0 -14657-3 0  9993,2 53708  53.2203 353.7346 0001738  88.6045 271.5147 15.08823830 81162,6917.93,95.439,540.997,538.592,0.0
53708.0,STARLINK-4694,PAYLOAD,2024-02-19 13:29:58,15.08821509,0.000175,53.2204,351.9498,89.3182,270.8011,-0.00017677,-3.099e-05,0.0,0 STARLINK-4694,1 53708U 22107J   24050.56247814 -.00003099  00000-0 -17677-3 0  9997,2 53708  53.2204 351.9498 0001750  89.3182 270.8011 15.08821509 81977,6917.937,95.439,541.013,538.591,0.0
53708.0,STARLINK-4694,PAYLOAD,2024-02-20 02:13:02,15.08826797,0.0001497,53.2186,349.5702,91.1795,268.9368,-2.9431e-05,-7.56e-06,0.0,0 STARLINK-4694,1 53708U 22107J   24051.09239384 -.00000756  00000-0 -29431-4 0  9998,2 53708  53.2186 349.5702 0001497  91.1795 268.9368 15.08826797 81300,6917.921,95.438,540.821,538.75,0.0
53708.0,STARLINK-4694,PAYLOAD,2024-02-20 05:23:48,15.08839783,0.0001556,53.2186,348.9749,95.3546,264.7623,-7.3782e-05,-1.462e-05,0.0,0 STARLINK-4694,1 53708U 22107J   24051.22486717 -.00001462  00000-0 -73782-4 0  9990,2 53708  53.2186 348.9749 0001556  95.3546 264.7623 15.08839783 81329,6917.881,95.438,540.822,538.67,0.0
53708.0,STARLINK-4694,PAYLOAD,2024-02-20 13:20:44,15.08841992,0.0001586,53.2187,347.4886,95.5794,264.5379,-4.998e-05,-1.083e-05,0.0,0 STARLINK-4694,1 53708U 22107J   24051.55606549 -.00001083  00000-0 -49980-4 0  9995,2 53708  53.2187 347.4886 0001586  95.5794 264.5379 15.08841992 82126,6917.874,95.437,540.836,538.642,0.0
53708.0,STARLINK-4694,PAYLOAD,2024-02-20 22:53:00,15.08886903,0.000157,53.2174,345.7037,86.3068,273.8103,-0.0012965,-0.00020889,0.0,0 STARLINK-4694,1 53708U 22107J   24051.95347388 -.00020889  00000-0 -12965-2 0  9998,2 53708  53.2174 345.7037 0001570  86.3068 273.8103 15.08886903 82181,6917.737,95.435,540.688,538.516,0.0
53708.0,STARLINK-4694,PAYLOAD,2024-02-21 00:28:23,15.08886365,0.0001633,53.2177,345.4064,89.4079,270.71,-0.0011741,-0.00018949,0.0,0 STARLINK-4694,1 53708U 22107J   24052.01971249 -.00018949  00000-0 -11741-2 0  9990,2 53708  53.2177 345.4064 0001633  89.4079 270.7100 15.08886365 81440,6917.739,95.435,540.733,538.474,0.0
53708.0,STARLINK-4694,PAYLOAD,2024-02-21 22:43:50,15.08836303,0.0001574,53.222,341.2473,83.2678,276.8493,0.00025253,3.733e-05,0.0,0 STARLINK-4694,1 53708U 22107J   24052.94711420  .00003733  00000-0  25253-3 0  9992,2 53708  53.2220 341.2473 0001574  83.2678 276.8493 15.08836303 82336,6917.892,95.438,540.846,538.668,0.0
